{
  "amenity/hospital|City Hospital": {
    "locationSet": {"include": ["001"]},
    "tags": {
      "amenity": "hospital",
      "brand": "City Hospital",
      "name": "City Hospital"
    }
  },
  "amenity/hospital|Civil Hospital": {
    "locationSet": {"include": ["001"]},
    "tags": {
      "amenity": "hospital",
      "brand": "Civil Hospital",
      "name": "Civil Hospital"
    }
  },
  "amenity/hospital|Cruz Roja": {
    "locationSet": {"include": ["001"]},
    "tags": {
      "amenity": "hospital",
      "brand": "Cruz Roja",
      "name": "Cruz Roja"
    }
  },
  "amenity/hospital|ESI Hospital": {
    "locationSet": {"include": ["001"]},
    "tags": {
      "amenity": "hospital",
      "brand": "ESI Hospital",
      "name": "ESI Hospital"
    }
  },
  "amenity/hospital|Fortis Healthcare": {
    "locationSet": {"include": ["in"]},
    "tags": {
      "amenity": "hospital",
      "brand": "Fortis Healthcare",
      "brand:wikidata": "Q7810035",
      "brand:wikipedia": "en:Fortis Healthcare",
      "healthcare": "hospital",
      "name": "Fortis Healthcare"
    }
  },
  "amenity/hospital|IMSS": {
    "locationSet": {"include": ["001"]},
    "tags": {
      "amenity": "hospital",
      "brand": "IMSS",
      "name": "IMSS"
    }
  },
  "amenity/hospital|Select Specialty Hospital": {
    "locationSet": {"include": ["us"]},
    "matchNames": ["select speciality"],
    "tags": {
      "amenity": "hospital",
      "brand": "Select Specialty Hospital",
      "brand:wikidata": "Q66360902",
      "healthcare": "hospital",
      "name": "Select Specialty Hospital"
    }
  },
  "amenity/hospital|Shriners Hospital for Children": {
    "locationSet": {"include": ["us"]},
    "matchNames": [
      "shriners burn hospital",
      "shriners hospital",
      "shriners hospitals for children"
    ],
    "tags": {
      "amenity": "hospital",
      "brand": "Shriners Hospitals for Children",
      "brand:wikidata": "Q7504109",
      "brand:wikipedia": "en:Shriners Hospitals for Children",
      "healthcare": "hospital",
      "healthcare:speciality": "paediatrics",
      "name": "Shriners Hospitals for Children"
    }
  },
  "amenity/hospital|VA Medical Center": {
    "locationSet": {"include": ["us"]},
    "matchNames": [
      "department of veterans affairs medical center",
      "veterans administration",
      "veterans administration hospital",
      "veterans administration medical center",
      "veterans affairs",
      "veterans affairs hospital",
      "veterans affairs medical center"
    ],
    "tags": {
      "amenity": "hospital",
      "brand": "VA",
      "brand:wikidata": "Q6580225",
      "brand:wikipedia": "en:Veterans Health Administration",
      "healthcare": "hospital",
      "healthcare:for": "veterans",
      "name": "VA Medical Center",
      "short_name": "VA"
    }
  },
  "amenity/hospital|Городская больница": {
    "locationSet": {"include": ["001"]},
    "tags": {
      "amenity": "hospital",
      "brand": "Городская больница",
      "name": "Городская больница"
    }
  },
  "amenity/hospital|Детская больница": {
    "locationSet": {"include": ["001"]},
    "tags": {
      "amenity": "hospital",
      "brand": "Детская больница",
      "name": "Детская больница"
    }
  },
  "amenity/hospital|Медпункт": {
    "locationSet": {"include": ["001"]},
    "tags": {
      "amenity": "hospital",
      "brand": "Медпункт",
      "name": "Медпункт"
    }
  },
  "amenity/hospital|Противотуберкулезный диспансер": {
    "locationSet": {"include": ["001"]},
    "tags": {
      "amenity": "hospital",
      "brand": "Противотуберкулезный диспансер",
      "name": "Противотуберкулезный диспансер"
    }
  },
  "amenity/hospital|Районная больница": {
    "locationSet": {"include": ["001"]},
    "tags": {
      "amenity": "hospital",
      "brand": "Районная больница",
      "name": "Районная больница"
    }
  },
  "amenity/hospital|Роддом": {
    "locationSet": {"include": ["001"]},
    "tags": {
      "amenity": "hospital",
      "brand": "Роддом",
      "name": "Роддом"
    }
  },
  "amenity/hospital|Родильный дом": {
    "locationSet": {"include": ["001"]},
    "tags": {
      "amenity": "hospital",
      "brand": "Родильный дом",
      "name": "Родильный дом"
    }
  },
  "amenity/hospital|Скорая помощь": {
    "locationSet": {"include": ["001"]},
    "tags": {
      "amenity": "hospital",
      "brand": "Скорая помощь",
      "name": "Скорая помощь"
    }
  },
  "amenity/hospital|โรงพยาบาลส่งเสริมสุขภาพตำบล": {
    "locationSet": {"include": ["th"]},
    "tags": {
      "amenity": "hospital",
      "brand": "โรงพยาบาลส่งเสริมสุขภาพตำบล",
      "brand:th": "โรงพยาบาลส่งเสริมสุขภาพตำบล",
      "name": "โรงพยาบาลส่งเสริมสุขภาพตำบล",
      "name:th": "โรงพยาบาลส่งเสริมสุขภาพตำบล"
    }
  },

  "amenity/hospital|Quirónsalud": {
    "locationSet": {"include": ["es"]},
    "tags": {
      "brand": "Quirónsalud",
      "brand:wikidata": "Q5886225",
      "brand:wikipedia": "es:Quirónsalud",
      "amenity": "hospital"
    }
  }
}
