{
  "amenity/ice_cream|33 пингвина": {
    "locationSet": {"include": ["001"]},
    "tags": {
      "amenity": "ice_cream",
      "brand": "33 пингвина",
      "name": "33 пингвина"
    }
  },
  "amenity/ice_cream|Abbott's Frozen Custard": {
    "locationSet": {"include": ["us"]},
    "tags": {
      "amenity": "ice_cream",
      "brand": "Abbott's Frozen Custard",
      "brand:wikidata": "Q4664334",
      "brand:wikipedia": "en:Abbott's Frozen Custard",
      "name": "Abbott's Frozen Custard",
      "short_name": "Abbott's"
    }
  },
  "amenity/ice_cream|Amorino": {
    "locationSet": {
      "include": [
        "ae",
        "ch",
        "cz",
        "de",
        "es",
        "fr",
        "gb",
        "gr",
        "ie",
        "it",
        "lu",
        "ma",
        "mt",
        "mx",
        "nc",
        "pt",
        "qa",
        "re",
        "us"
      ]
    },
    "tags": {
      "amenity": "ice_cream",
      "brand": "Amorino",
      "brand:wikidata": "Q2843884",
      "brand:wikipedia": "fr:Amorino",
      "name": "Amorino"
    }
  },
  "amenity/ice_cream|Amy's Ice Creams": {
    "locationSet": {"include": ["001"]},
    "tags": {
      "amenity": "ice_cream",
      "brand": "Amy's Ice Creams",
      "brand:wikidata": "Q4749045",
      "brand:wikipedia": "en:Amy's Ice Creams",
      "name": "Amy's Ice Creams"
    }
  },
  "amenity/ice_cream|Andy's Frozen Custard": {
    "locationSet": {"include": ["us"]},
    "tags": {
      "amenity": "ice_cream",
      "brand": "Andy's Frozen Custard",
      "brand:wikidata": "Q4760327",
      "brand:wikipedia": "en:Andy's Frozen Custard",
      "name": "Andy's Frozen Custard",
      "short_name": "Andy's"
    }
  },
  "amenity/ice_cream|Baskin-Robbins": {
    "locationSet": {"include": ["001"]},
    "tags": {
      "amenity": "ice_cream",
      "brand": "Baskin-Robbins",
      "brand:wikidata": "Q584601",
      "brand:wikipedia": "en:Baskin-Robbins",
      "cuisine": "ice_cream",
      "name": "Baskin-Robbins"
    }
  },
  "amenity/ice_cream|Ben & Jerry's": {
    "locationSet": {"include": ["001"]},
    "tags": {
      "amenity": "ice_cream",
      "brand": "Ben & Jerry's",
      "brand:wikidata": "Q816412",
      "brand:wikipedia": "en:Ben & Jerry's",
      "cuisine": "ice_cream",
      "name": "Ben & Jerry's"
    }
  },
  "amenity/ice_cream|Bruster's Ice Cream": {
    "locationSet": {"include": ["us"]},
    "matchNames": ["brusters"],
    "tags": {
      "amenity": "ice_cream",
      "brand": "Bruster's Ice Cream",
      "brand:wikidata": "Q4979810",
      "brand:wikipedia": "en:Bruster's Ice Cream",
      "cuisine": "ice_cream",
      "name": "Bruster's Ice Cream"
    }
  },
  "amenity/ice_cream|Carvel": {
    "locationSet": {"include": ["us"]},
    "tags": {
      "amenity": "ice_cream",
      "brand": "Carvel",
      "brand:wikidata": "Q5047520",
      "brand:wikipedia": "en:Carvel (franchise)",
      "cuisine": "ice_cream",
      "name": "Carvel",
      "takeaway": "yes"
    }
  },
  "amenity/ice_cream|Cold Rock Ice Creamery": {
    "locationSet": {"include": ["au"]},
    "tags": {
      "amenity": "ice_cream",
      "brand": "Cold Rock Ice Creamery",
      "brand:wikidata": "Q2982390",
      "brand:wikipedia": "en:Cold Rock Ice Creamery",
      "cuisine": "ice_cream",
      "name": "Cold Rock Ice Creamery",
      "takeaway": "yes"
    }
  },
  "amenity/ice_cream|Cold Stone Creamery": {
    "locationSet": {"include": ["ng", "us"]},
    "matchNames": ["cold stone"],
    "tags": {
      "amenity": "ice_cream",
      "brand": "Cold Stone Creamery",
      "brand:wikidata": "Q1094923",
      "brand:wikipedia": "en:Cold Stone Creamery",
      "cuisine": "ice_cream",
      "name": "Cold Stone Creamery"
    }
  },
  "amenity/ice_cream|D'Onofrio": {
    "locationSet": {"include": ["pe"]},
    "tags": {
      "amenity": "ice_cream",
      "brand": "D'Onofrio",
      "brand:wikidata": "Q5203166",
      "brand:wikipedia": "es:D'Onofrio",
      "cuisine": "ice_cream",
      "name": "D'Onofrio"
    }
  },
  "amenity/ice_cream|Freddo": {
    "locationSet": {"include": ["001"]},
    "tags": {
      "amenity": "ice_cream",
      "brand": "Freddo",
      "brand:wikidata": "Q28823999",
      "brand:wikipedia": "es:Freddo",
      "cuisine": "ice_cream",
      "name": "Freddo"
    }
  },
  "amenity/ice_cream|Graeter's": {
    "locationSet": {"include": ["us"]},
    "matchNames": ["greaters"],
    "tags": {
      "amenity": "ice_cream",
      "brand": "Graeter's",
      "brand:wikidata": "Q5592430",
      "brand:wikipedia": "en:Graeter's",
      "cuisine": "ice_cream",
      "name": "Graeter's",
      "takeaway": "yes"
    }
  },
  "amenity/ice_cream|Grido": {
    "locationSet": {"include": ["ar"]},
    "matchNames": ["grido helado"],
    "matchTags": ["shop/confectionary"],
    "tags": {
      "amenity": "ice_cream",
      "brand": "Grido",
      "brand:wikidata": "Q5885724",
      "brand:wikipedia": "es:Grido Helado",
      "cuisine": "ice_cream",
      "name": "Grido"
    }
  },
  "amenity/ice_cream|Häagen-Dazs": {
    "locationSet": {"include": ["001"]},
    "tags": {
      "amenity": "ice_cream",
      "brand": "Häagen-Dazs",
      "brand:wikidata": "Q1143333",
      "brand:wikipedia": "en:Häagen-Dazs",
      "name": "Häagen-Dazs"
    }
  },
  "amenity/ice_cream|La Michoacana": {
    "locationSet": {"include": ["mx"]},
    "matchNames": ["paleteria la michoacana"],
    "tags": {
      "amenity": "ice_cream",
      "brand": "La Michoacana",
      "brand:wikidata": "Q17118857",
      "brand:wikipedia": "en:Paletería La Michoacana",
      "name": "La Michoacana"
    }
  },
  "amenity/ice_cream|Marble Slab Creamery": {
    "locationSet": {"include": ["ca", "us"]},
    "tags": {
      "amenity": "ice_cream",
      "brand": "Marble Slab Creamery",
      "brand:wikidata": "Q17020087",
      "brand:wikipedia": "en:Marble Slab Creamery",
      "cuisine": "ice_cream",
      "name": "Marble Slab Creamery"
    }
  },
  "amenity/ice_cream|Menchie's": {
    "locationSet": {
      "include": [
        "ae",
        "bh",
        "bs",
        "ca",
        "cn",
        "gb",
        "in",
        "jp",
        "kw",
        "qa",
        "sa",
        "us"
      ]
    },
    "matchNames": [
      "menchie's frozen yoghurt",
      "menchie's frozen yogurt"
    ],
    "tags": {
      "amenity": "ice_cream",
      "brand": "Menchie's",
      "brand:wikidata": "Q6816528",
      "brand:wikipedia": "en:Menchie's Frozen Yogurt",
      "cuisine": "frozen_yogurt",
      "name": "Menchie's"
    }
  },
  "amenity/ice_cream|Naturals": {
    "locationSet": {"include": ["in"]},
    "tags": {
      "amenity": "ice_cream",
      "brand": "Naturals",
      "brand:wikidata": "Q24439154",
      "brand:wikipedia": "en:Natural Ice Cream",
      "cuisine": "ice_cream",
      "name": "Naturals"
    }
  },
  "amenity/ice_cream|Pinkberry": {
    "locationSet": {"include": ["001"]},
    "tags": {
      "amenity": "ice_cream",
      "brand": "Pinkberry",
      "brand:wikidata": "Q2904053",
      "brand:wikipedia": "en:Pinkberry",
      "cuisine": "frozen_yogurt",
      "name": "Pinkberry",
      "takeaway": "yes"
    }
  },
  "amenity/ice_cream|Ralph's Italian Ices": {
    "locationSet": {"include": ["us"]},
    "matchNames": [
      "ralphs famous italian ices and ice cream",
      "ralphs italian ice",
      "ralphs italian ices and ice cream"
    ],
    "tags": {
      "amenity": "ice_cream",
      "brand": "Ralph's Italian Ices",
      "brand:wikidata": "Q62576909",
      "cuisine": "ice_cream",
      "name": "Ralph's Italian Ices",
      "official_name": "Ralph's Famous Italian Ices"
    }
  },
  "amenity/ice_cream|Rita's Italian Ice": {
    "locationSet": {"include": ["us"]},
    "matchNames": ["ritas", "ritas water ice"],
    "tags": {
      "amenity": "ice_cream",
      "brand": "Rita's Italian Ice",
      "brand:wikidata": "Q7336456",
      "brand:wikipedia": "en:Rita's Italian Ice",
      "cuisine": "ice_cream",
      "name": "Rita's Italian Ice"
    }
  },
  "amenity/ice_cream|Shake's": {
    "locationSet": {"include": ["us"]},
    "tags": {
      "amenity": "ice_cream",
      "brand": "Shake's",
      "brand:wikidata": "Q17032842",
      "brand:wikipedia": "en:Shake's Frozen Custard",
      "name": "Shake's",
      "official_name": "Shake’s Frozen Custard"
    }
  },
  "amenity/ice_cream|TCBY": {
    "locationSet": {"include": ["001"]},
    "tags": {
      "amenity": "ice_cream",
      "brand": "TCBY",
      "brand:wikidata": "Q7669631",
      "brand:wikipedia": "en:TCBY",
      "cuisine": "frozen_yogurt",
      "name": "TCBY",
      "takeaway": "yes"
    }
  },
  "amenity/ice_cream|Toscana": {
    "locationSet": {"include": ["nl"]},
    "tags": {
      "amenity": "ice_cream",
      "brand": "Toscana",
      "brand:wikidata": "Q92555442",
      "name": "Toscana"
    }
  },
  "amenity/ice_cream|Yogen Früz": {
    "locationSet": {"include": ["001"]},
    "tags": {
      "amenity": "ice_cream",
      "brand": "Yogen Früz",
      "brand:wikidata": "Q8054358",
      "brand:wikipedia": "en:Yogen Früz",
      "cuisine": "frozen_yogurt",
      "name": "Yogen Früz",
      "takeaway": "yes"
    }
  },
  "amenity/ice_cream|Yogurt Mountain": {
    "locationSet": {"include": ["001"]},
    "tags": {
      "amenity": "ice_cream",
      "brand": "Yogurt Mountain",
      "brand:wikidata": "Q8054427",
      "brand:wikipedia": "en:Yogurt Mountain",
      "cuisine": "frozen_yogurt",
      "name": "Yogurt Mountain",
      "takeaway": "yes"
    }
  },
  "amenity/ice_cream|Yogurtland": {
    "locationSet": {
      "include": [
        "ae",
        "au",
        "sg",
        "th",
        "us",
        "ve"
      ]
    },
    "tags": {
      "amenity": "ice_cream",
      "brand": "Yogurtland",
      "brand:wikidata": "Q8054428",
      "brand:wikipedia": "en:Yogurtland",
      "cuisine": "frozen_yogurt",
      "name": "Yogurtland",
      "takeaway": "yes"
    }
  },
  "amenity/ice_cream|smöoy": {
    "locationSet": {
      "include": [
        "ao",
        "ci",
        "cn",
        "dz",
        "ec",
        "es",
        "fr",
        "gb",
        "gn",
        "it",
        "ma",
        "pa",
        "pe",
        "pt",
        "re",
        "sa"
      ]
    },
    "tags": {
      "amenity": "ice_cream",
      "brand": "smöoy",
      "brand:wikidata": "Q21573945",
      "brand:wikipedia": "es:Smöoy",
      "name": "smöoy",
      "official_name": "Softy Cream"
    }
  },
  "amenity/ice_cream|sweetFrog": {
    "locationSet": {"include": ["us"]},
    "matchNames": [
      "sweetfrog frozen yogurt",
      "sweetfrog premium frozen yogurt"
    ],
    "tags": {
      "amenity": "ice_cream",
      "brand": "sweetFrog",
      "brand:wikidata": "Q16952110",
      "brand:wikipedia": "en:Sweet Frog",
      "cuisine": "frozen_yogurt",
      "name": "sweetFrog"
    }
  },
  "amenity/ice_cream|サーティワンアイスクリーム": {
    "locationSet": {"include": ["jp"]},
    "matchNames": ["31アイスクリーム", "サーティーワン"],
    "tags": {
      "amenity": "ice_cream",
      "brand": "バスキン・ロビンス",
      "brand:en": "Baskin-Robbins",
      "brand:ja": "バスキン・ロビンス",
      "brand:wikidata": "Q584601",
      "brand:wikipedia": "ja:バスキン・ロビンス",
      "cuisine": "ice_cream",
      "name": "サーティワンアイスクリーム",
      "name:en": "Baskin-Robbins",
      "name:ja": "サーティワンアイスクリーム"
    }
  },
  "amenity/ice_cream|Llaollao": {
    "locationSet": {"include": ["au","ch","cl","co","hr","ec","es","fr","gt","id","iq","kw","ma","my","ph","po","sa","sg","si","sv","us","vn"]},
    "tags": {
      "amenity": "ice_cream",
      "brand": "Llaollao",
      "brand:wikidata": "Q12163048",
      "brand:wikipedia": "es:Llaollao",
      "name": "Llaollao",
      "cuisine": "frozen_yogurt"
    }
  }
}
